{
  "type": "FeatureCollection",
  "features": [
    {
      "type": "Feature",
      "properties": {
        "norad_id": 43603,
        "name": "BEIDOU-3 M11 (C25)",
        "group": "beidou",
        "lat": -26.05777277476538,
        "lon": 166.7954438811691,
        "alt_km": 21526.342016881004,
        "timestamp": "2025-12-08T08:59:01.031143+00:00",
        "meta_object_name": "BEIDOU-3 M11 (C25)",
        "meta_object_id": "2018-067B",
        "meta_epoch": "2025-12-07T08:23:01.597056",
        "meta_mean_motion": 1.8622716,
        "meta_eccentricity": 0.00055888,
        "meta_inclination": 54.1804,
        "meta_ra_of_asc_node": 187.5103,
        "meta_arg_of_pericenter": 36.6021,
        "meta_mean_anomaly": 323.5051,
        "meta_ephemeris_type": 0,
        "meta_classification_type": "U",
        "meta_norad_cat_id": 43603,
        "meta_element_set_no": 999,
        "meta_rev_at_epoch": 4957,
        "meta_bstar": 0,
        "meta_mean_motion_dot": 6e-07,
        "meta_mean_motion_ddot": 0,
        "tle_line1": "1 43603U 18067B   25341.34932404  .00000060  00000+0  00000+0 0  9996",
        "tle_line2": "2 43603  54.1804 187.5103 0005588  36.6021 323.5051  1.86227160 49576"
      },
      "geometry": {
        "type": "Point",
        "coordinates": [
          166.7954438811691,
          -26.05777277476538
        ]
      }
    },
    {
      "type": "Feature",
      "properties": {
        "norad_id": 43622,
        "name": "BEIDOU-3 M13 (C32)",
        "group": "beidou",
        "lat": -3.052394841793372,
        "lon": 66.95061057871249,
        "alt_km": 21520.333510264074,
        "timestamp": "2025-12-08T08:59:01.031154+00:00",
        "meta_object_name": "BEIDOU-3 M13 (C32)",
        "meta_object_id": "2018-072A",
        "meta_epoch": "2025-12-03T13:07:53.541408",
        "meta_mean_motion": 1.86230692,
        "meta_eccentricity": 0.00056735,
        "meta_inclination": 56.4512,
        "meta_ra_of_asc_node": 69.1249,
        "meta_arg_of_pericenter": 298.6305,
        "meta_mean_anomaly": 61.3164,
        "meta_ephemeris_type": 0,
        "meta_classification_type": "U",
        "meta_norad_cat_id": 43622,
        "meta_element_set_no": 999,
        "meta_rev_at_epoch": 4901,
        "meta_bstar": 0,
        "meta_mean_motion_dot": -5e-07,
        "meta_mean_motion_ddot": 0,
        "tle_line1": "1 43622U 18072A   25337.54714747 -.00000050  00000+0  00000+0 0  9998",
        "tle_line2": "2 43622  56.4512  69.1249 0005673 298.6305  61.3164  1.86230692 49019"
      },
      "geometry": {
        "type": "Point",
        "coordinates": [
          66.95061057871249,
          -3.052394841793372
        ]
      }
    },
    {
      "type": "Feature",
      "properties": {
        "norad_id": 43623,
        "name": "BEIDOU-3 M14 (C33)",
        "group": "beidou",
        "lat": 56.32543131105974,
        "lon": 152.79663979541027,
        "alt_km": 21525.208933728518,
        "timestamp": "2025-12-08T08:59:01.031166+00:00",
        "meta_object_name": "BEIDOU-3 M14 (C33)",
        "meta_object_id": "2018-072B",
        "meta_epoch": "2025-12-07T04:06:42.144768",
        "meta_mean_motion": 1.86230742,
        "meta_eccentricity": 0.00032284,
        "meta_inclination": 56.456,
        "meta_ra_of_asc_node": 68.9987,
        "meta_arg_of_pericenter": 333.0096,
        "meta_mean_anomaly": 26.9917,
        "meta_ephemeris_type": 0,
        "meta_classification_type": "U",
        "meta_norad_cat_id": 43623,
        "meta_element_set_no": 999,
        "meta_rev_at_epoch": 4907,
        "meta_bstar": 0,
        "meta_mean_motion_dot": -4.5e-07,
        "meta_mean_motion_ddot": 0,
        "tle_line1": "1 43623U 18072B   25341.17132112 -.00000045  00000+0  00000+0 0  9997",
        "tle_line2": "2 43623  56.4560  68.9987 0003228 333.0096  26.9917  1.86230742 49079"
      },
      "geometry": {
        "type": "Point",
        "coordinates": [
          152.79663979541027,
          56.32543131105974
        ]
      }
    },
    {
      "type": "Feature",
      "properties": {
        "norad_id": 43647,
        "name": "BEIDOU-3 M16 (C35)",
        "group": "beidou",
        "lat": -15.59027511582723,
        "lon": -64.92678274420548,
        "alt_km": 21514.503672603332,
        "timestamp": "2025-12-08T08:59:01.031178+00:00",
        "meta_object_name": "BEIDOU-3 M16 (C35)",
        "meta_object_id": "2018-078A",
        "meta_epoch": "2025-12-07T07:54:04.576896",
        "meta_mean_motion": 1.86232109,
        "meta_eccentricity": 0.00071609,
        "meta_inclination": 54.2671,
        "meta_ra_of_asc_node": 306.7103,
        "meta_arg_of_pericenter": 19.0723,
        "meta_mean_anomaly": 340.9397,
        "meta_ephemeris_type": 0,
        "meta_classification_type": "U",
        "meta_norad_cat_id": 43647,
        "meta_element_set_no": 999,
        "meta_rev_at_epoch": 4858,
        "meta_bstar": 0,
        "meta_mean_motion_dot": -7e-07,
        "meta_mean_motion_ddot": 0,
        "tle_line1": "1 43647U 18078A   25341.32921964 -.00000070  00000+0  00000+0 0  9995",
        "tle_line2": "2 43647  54.2671 306.7103 0007160  19.0723 340.9397  1.86232109 48589"
      },
      "geometry": {
        "type": "Point",
        "coordinates": [
          -64.92678274420548,
          -15.59027511582723
        ]
      }
    },
    {
      "type": "Feature",
      "properties": {
        "norad_id": 43648,
        "name": "BEIDOU-3 M15 (C34)",
        "group": "beidou",
        "lat": -51.309174426529694,
        "lon": -169.39731012132577,
        "alt_km": 21539.263399833362,
        "timestamp": "2025-12-08T08:59:01.031189+00:00",
        "meta_object_name": "BEIDOU-3 M15 (C34)",
        "meta_object_id": "2018-078B",
        "meta_epoch": "2025-12-05T07:27:18.667008",
        "meta_mean_motion": 1.86231965,
        "meta_eccentricity": 0.00036856,
        "meta_inclination": 54.2646,
        "meta_ra_of_asc_node": 306.7819,
        "meta_arg_of_pericenter": 17.7509,
        "meta_mean_anomaly": 342.2442,
        "meta_ephemeris_type": 0,
        "meta_classification_type": "U",
        "meta_norad_cat_id": 43648,
        "meta_element_set_no": 999,
        "meta_rev_at_epoch": 4856,
        "meta_bstar": 0,
        "meta_mean_motion_dot": -6.9e-07,
        "meta_mean_motion_ddot": 0,
        "tle_line1": "1 43648U 18078B   25339.31063272 -.00000069  00000+0  00000+0 0  9999",
        "tle_line2": "2 43648  54.2646 306.7819 0003685  17.7509 342.2442  1.86231965 48564"
      },
      "geometry": {
        "type": "Point",
        "coordinates": [
          -169.39731012132577,
          -51.309174426529694
        ]
      }
    },
    {
      "type": "Feature",
      "properties": {
        "norad_id": 43683,
        "name": "BEIDOU-3 G1 (C59)",
        "group": "beidou",
        "lat": -2.4235071008695526,
        "lon": -7.815618117213611,
        "alt_km": 35793.925369003286,
        "timestamp": "2025-12-08T08:59:01.031201+00:00",
        "meta_object_name": "BEIDOU-3 G1 (C59)",
        "meta_object_id": "2018-085A",
        "meta_epoch": "2025-12-07T22:51:34.164864",
        "meta_mean_motion": 1.00272268,
        "meta_eccentricity": 0.00018224,
        "meta_inclination": 2.5954,
        "meta_ra_of_asc_node": 103.0854,
        "meta_arg_of_pericenter": 63.7825,
        "meta_mean_anomaly": 33.0599,
        "meta_ephemeris_type": 0,
        "meta_classification_type": "U",
        "meta_norad_cat_id": 43683,
        "meta_element_set_no": 999,
        "meta_rev_at_epoch": 2614,
        "meta_bstar": 0,
        "meta_mean_motion_dot": -2.75e-06,
        "meta_mean_motion_ddot": 0,
        "tle_line1": "1 43683U 18085A   25341.95247876 -.00000275  00000+0  00000+0 0  9992",
        "tle_line2": "2 43683   2.5954 103.0854 0001822  63.7825  33.0599  1.00272268 26146"
      },
      "geometry": {
        "type": "Point",
        "coordinates": [
          -7.815618117213611,
          -2.4235071008695526
        ]
      }
    },
    {
      "type": "Feature",
      "properties": {
        "norad_id": 43706,
        "name": "BEIDOU-3 M17 (C36)",
        "group": "beidou",
        "lat": 25.619992767539372,
        "lon": -11.498005046795459,
        "alt_km": 21541.68030721767,
        "timestamp": "2025-12-08T08:59:01.031213+00:00",
        "meta_object_name": "BEIDOU-3 M17 (C36)",
        "meta_object_id": "2018-093A",
        "meta_epoch": "2025-12-03T14:10:37.280064",
        "meta_mean_motion": 1.86228161,
        "meta_eccentricity": 0.00063465,
        "meta_inclination": 54.1727,
        "meta_ra_of_asc_node": 188.9327,
        "meta_arg_of_pericenter": 306.3477,
        "meta_mean_anomaly": 234.3147,
        "meta_ephemeris_type": 0,
        "meta_classification_type": "U",
        "meta_norad_cat_id": 43706,
        "meta_element_set_no": 999,
        "meta_rev_at_epoch": 4789,
        "meta_bstar": 0,
        "meta_mean_motion_dot": 1.14e-06,
        "meta_mean_motion_ddot": 0,
        "tle_line1": "1 43706U 18093A   25337.59070926  .00000114  00000+0  00000+0 0  9993",
        "tle_line2": "2 43706  54.1727 188.9327 0006346 306.3477 234.3147  1.86228161 47892"
      },
      "geometry": {
        "type": "Point",
        "coordinates": [
          -11.498005046795459,
          25.619992767539372
        ]
      }
    }
  ]
}